STARLINK-35249          
1 65901U 25224V   25299.91670139 -.01996376  00000+0 -24278-1 0  9995
2 65901  53.1595 275.2145 0001440  93.2977  52.7043 15.63284323  4364
STARLINK-35278          
1 65902U 25224W   25299.91670139 -.01995732  00000+0 -24272-1 0  9995
2 65902  53.1594 275.2021 0001329  99.2470  52.5079 15.63282860  4380
STARLINK-35210          
1 65903U 25224X   25299.91670139 -.01997261  00000+0 -24291-1 0  9996
2 65903  53.1596 275.2060 0001419  94.8545  54.9827 15.63284116  4361
STARLINK-35348          
1 65904U 25224Y   25299.91670139 -.01992328  00000+0 -24225-1 0  9993
2 65904  53.1597 275.2103 0001480  96.4746  51.4474 15.63280872  4332
STARLINK-35380          
1 65905U 25224Z   25299.91670139 -.01998367  00000+0 -24305-1 0  9992
2 65905  53.1592 275.1992 0001420  93.8858  59.7839 15.63285354  4338
STARLINK-35385          
1 65906U 25224AA  25299.91670139 -.01993656  00000+0 -24245-1 0  9992
2 65906  53.1597 275.1907 0001425  95.6316  61.8769 15.63279858  4365
STARLINK-35347          
1 65907U 25224AB  25299.91670139 -.01994893  00000+0 -24261-1 0  9995
2 65907  53.1600 275.1862 0001479  98.0838  61.3423 15.63279844  4363
STARLINK-35329          
1 65908U 25224AC  25299.91670139 -.01998957  00000+0 -24315-1 0  9991
2 65908  53.1593 275.1942 0001434  98.5122  57.0790 15.63282815  4378
STARLINK-35387          
1 65909U 25224AD  25299.91670139 -.01999165  00000+0 -24318-1 0  9997
2 65909  53.1599 275.1819 0001424  97.5180  63.8236 15.63283224  4331
STARLINK-35523          
1 65910U 25225A   25299.91765771  .00082288  00000+0  56011-3 0  9990
2 65910  53.1606  70.8470 0001252  75.9621 284.1538 15.74212326  3872
STARLINK-35160          
1 65911U 25225B   25299.85382866  .00261788  00000+0  17292-2 0  9995
2 65911  53.1600  71.1603 0000941  74.7511 285.3613 15.74289780  3862
STARLINK-35508          
1 65912U 25225C   25299.85348878  .00256521  00000+0  16956-2 0  9996
2 65912  53.1606  71.1567 0000713  95.4544 264.6557 15.74289571  3866
