CCSDS_OMM_VERS = 2.0
CREATION_DATE  = 
ORIGINATOR     = 

OBJECT_NAME    = STARLINK-35249
OBJECT_ID      = 2025-224V
CENTER_NAME    = EARTH
REF_FRAME      = TEME
TIME_SYSTEM    = UTC
MEAN_ELEMENT_THEORY = SGP/SGP4

EPOCH          = 2025-10-26T22:00:03.000096
MEAN_MOTION    = 15.63284323
ECCENTRICITY   = .00014403
INCLINATION    = 53.1595
RA_OF_ASC_NODE = 275.2145
ARG_OF_PERICENTER = 93.2977
MEAN_ANOMALY   = 52.7043

EPHEMERIS_TYPE = 0
CLASSIFICATION_TYPE = U
NORAD_CAT_ID   = 65901
ELEMENT_SET_NO = 999
REV_AT_EPOCH   = 436
BSTAR          = -.24278133E-1
MEAN_MOTION_DOT = -.1996376E-1
MEAN_MOTION_DDOT = 0

CCSDS_OMM_VERS = 2.0
CREATION_DATE  = 
ORIGINATOR     = 

OBJECT_NAME    = STARLINK-35278
OBJECT_ID      = 2025-224W
CENTER_NAME    = EARTH
REF_FRAME      = TEME
TIME_SYSTEM    = UTC
MEAN_ELEMENT_THEORY = SGP/SGP4

EPOCH          = 2025-10-26T22:00:03.000096
MEAN_MOTION    = 15.63282860
ECCENTRICITY   = .00013298
INCLINATION    = 53.1594
RA_OF_ASC_NODE = 275.2021
ARG_OF_PERICENTER = 99.2470
MEAN_ANOMALY   = 52.5079

EPHEMERIS_TYPE = 0
CLASSIFICATION_TYPE = U
NORAD_CAT_ID   = 65902
ELEMENT_SET_NO = 999
REV_AT_EPOCH   = 438
BSTAR          = -.24271779E-1
MEAN_MOTION_DOT = -.1995732E-1
MEAN_MOTION_DDOT = 0

CCSDS_OMM_VERS = 2.0
CREATION_DATE  = 
ORIGINATOR     = 

OBJECT_NAME    = STARLINK-35210
OBJECT_ID      = 2025-224X
CENTER_NAME    = EARTH
REF_FRAME      = TEME
TIME_SYSTEM    = UTC
MEAN_ELEMENT_THEORY = SGP/SGP4

EPOCH          = 2025-10-26T22:00:03.000096
MEAN_MOTION    = 15.63284116
ECCENTRICITY   = .00014196
INCLINATION    = 53.1596
RA_OF_ASC_NODE = 275.2060
ARG_OF_PERICENTER = 94.8545
MEAN_ANOMALY   = 54.9827

EPHEMERIS_TYPE = 0
CLASSIFICATION_TYPE = U
NORAD_CAT_ID   = 65903
ELEMENT_SET_NO = 999
REV_AT_EPOCH   = 436
BSTAR          = -.24290824E-1
MEAN_MOTION_DOT = -.1997261E-1
MEAN_MOTION_DDOT = 0

CCSDS_OMM_VERS = 2.0
CREATION_DATE  = 
ORIGINATOR     = 

OBJECT_NAME    = STARLINK-35348
OBJECT_ID      = 2025-224Y
CENTER_NAME    = EARTH
REF_FRAME      = TEME
TIME_SYSTEM    = UTC
MEAN_ELEMENT_THEORY = SGP/SGP4

EPOCH          = 2025-10-26T22:00:03.000096
MEAN_MOTION    = 15.63280872
ECCENTRICITY   = .00014804
INCLINATION    = 53.1597
RA_OF_ASC_NODE = 275.2103
ARG_OF_PERICENTER = 96.4746
MEAN_ANOMALY   = 51.4474

EPHEMERIS_TYPE = 0
CLASSIFICATION_TYPE = U
NORAD_CAT_ID   = 65904
ELEMENT_SET_NO = 999
REV_AT_EPOCH   = 433
BSTAR          = -.24224973E-1
MEAN_MOTION_DOT = -.1992328E-1
MEAN_MOTION_DDOT = 0

CCSDS_OMM_VERS = 2.0
CREATION_DATE  = 
ORIGINATOR     = 

OBJECT_NAME    = STARLINK-35380
OBJECT_ID      = 2025-224Z
CENTER_NAME    = EARTH
REF_FRAME      = TEME
TIME_SYSTEM    = UTC
MEAN_ELEMENT_THEORY = SGP/SGP4

EPOCH          = 2025-10-26T22:00:03.000096
MEAN_MOTION    = 15.63285354
ECCENTRICITY   = .00014203
INCLINATION    = 53.1592
RA_OF_ASC_NODE = 275.1992
ARG_OF_PERICENTER = 93.8858
MEAN_ANOMALY   = 59.7839

EPHEMERIS_TYPE = 0
CLASSIFICATION_TYPE = U
NORAD_CAT_ID   = 65905
ELEMENT_SET_NO = 999
REV_AT_EPOCH   = 433
BSTAR          = -.24304935E-1
MEAN_MOTION_DOT = -.1998367E-1
MEAN_MOTION_DDOT = 0

CCSDS_OMM_VERS = 2.0
CREATION_DATE  = 
ORIGINATOR     = 

OBJECT_NAME    = STARLINK-35385
OBJECT_ID      = 2025-224AA
CENTER_NAME    = EARTH
REF_FRAME      = TEME
TIME_SYSTEM    = UTC
MEAN_ELEMENT_THEORY = SGP/SGP4

EPOCH          = 2025-10-26T22:00:03.000096
MEAN_MOTION    = 15.63279858
ECCENTRICITY   = .0001425
INCLINATION    = 53.1597
RA_OF_ASC_NODE = 275.1907
ARG_OF_PERICENTER = 95.6316
MEAN_ANOMALY   = 61.8769

EPHEMERIS_TYPE = 0
CLASSIFICATION_TYPE = U
NORAD_CAT_ID   = 65906
ELEMENT_SET_NO = 999
REV_AT_EPOCH   = 436
BSTAR          = -.24244915E-1
MEAN_MOTION_DOT = -.1993656E-1
MEAN_MOTION_DDOT = 0

CCSDS_OMM_VERS = 2.0
CREATION_DATE  = 
ORIGINATOR     = 

OBJECT_NAME    = STARLINK-35347
OBJECT_ID      = 2025-224AB
CENTER_NAME    = EARTH
REF_FRAME      = TEME
TIME_SYSTEM    = UTC
MEAN_ELEMENT_THEORY = SGP/SGP4

EPOCH          = 2025-10-26T22:00:03.000096
MEAN_MOTION    = 15.63279844
ECCENTRICITY   = .00014799
INCLINATION    = 53.1600
RA_OF_ASC_NODE = 275.1862
ARG_OF_PERICENTER = 98.0838
MEAN_ANOMALY   = 61.3423

EPHEMERIS_TYPE = 0
CLASSIFICATION_TYPE = U
NORAD_CAT_ID   = 65907
ELEMENT_SET_NO = 999
REV_AT_EPOCH   = 436
BSTAR          = -.24261491E-1
MEAN_MOTION_DOT = -.1994893E-1
MEAN_MOTION_DDOT = 0

CCSDS_OMM_VERS = 2.0
CREATION_DATE  = 
ORIGINATOR     = 

OBJECT_NAME    = STARLINK-35329
OBJECT_ID      = 2025-224AC
CENTER_NAME    = EARTH
REF_FRAME      = TEME
TIME_SYSTEM    = UTC
MEAN_ELEMENT_THEORY = SGP/SGP4

EPOCH          = 2025-10-26T22:00:03.000096
MEAN_MOTION    = 15.63282815
ECCENTRICITY   = .00014345
INCLINATION    = 53.1593
RA_OF_ASC_NODE = 275.1942
ARG_OF_PERICENTER = 98.5122
MEAN_ANOMALY   = 57.0790

EPHEMERIS_TYPE = 0
CLASSIFICATION_TYPE = U
NORAD_CAT_ID   = 65908
ELEMENT_SET_NO = 999
REV_AT_EPOCH   = 437
BSTAR          = -.24315422E-1
MEAN_MOTION_DOT = -.1998957E-1
MEAN_MOTION_DDOT = 0

CCSDS_OMM_VERS = 2.0
CREATION_DATE  = 
ORIGINATOR     = 

OBJECT_NAME    = STARLINK-35387
OBJECT_ID      = 2025-224AD
CENTER_NAME    = EARTH
REF_FRAME      = TEME
TIME_SYSTEM    = UTC
MEAN_ELEMENT_THEORY = SGP/SGP4

EPOCH          = 2025-10-26T22:00:03.000096
MEAN_MOTION    = 15.63283224
ECCENTRICITY   = .0001424
INCLINATION    = 53.1599
RA_OF_ASC_NODE = 275.1819
ARG_OF_PERICENTER = 97.5180
MEAN_ANOMALY   = 63.8236

EPHEMERIS_TYPE = 0
CLASSIFICATION_TYPE = U
NORAD_CAT_ID   = 65909
ELEMENT_SET_NO = 999
REV_AT_EPOCH   = 433
BSTAR          = -.24318025E-1
MEAN_MOTION_DOT = -.1999165E-1
MEAN_MOTION_DDOT = 0

CCSDS_OMM_VERS = 2.0
CREATION_DATE  = 
ORIGINATOR     = 

OBJECT_NAME    = STARLINK-35523
OBJECT_ID      = 2025-225A
CENTER_NAME    = EARTH
REF_FRAME      = TEME
TIME_SYSTEM    = UTC
MEAN_ELEMENT_THEORY = SGP/SGP4

EPOCH          = 2025-10-26T22:01:25.626144
MEAN_MOTION    = 15.74212326
ECCENTRICITY   = .00012527
INCLINATION    = 53.1606
RA_OF_ASC_NODE = 70.8470
ARG_OF_PERICENTER = 75.9621
MEAN_ANOMALY   = 284.1538

EPHEMERIS_TYPE = 0
CLASSIFICATION_TYPE = U
NORAD_CAT_ID   = 65910
ELEMENT_SET_NO = 999
REV_AT_EPOCH   = 387
BSTAR          = .56010842E-3
MEAN_MOTION_DOT = .82288E-3
MEAN_MOTION_DDOT = 0

CCSDS_OMM_VERS = 2.0
CREATION_DATE  = 
ORIGINATOR     = 

OBJECT_NAME    = STARLINK-35160
OBJECT_ID      = 2025-225B
CENTER_NAME    = EARTH
REF_FRAME      = TEME
TIME_SYSTEM    = UTC
MEAN_ELEMENT_THEORY = SGP/SGP4

EPOCH          = 2025-10-26T20:29:30.796224
MEAN_MOTION    = 15.74289780
ECCENTRICITY   = .00009418
INCLINATION    = 53.1600
RA_OF_ASC_NODE = 71.1603
ARG_OF_PERICENTER = 74.7511
MEAN_ANOMALY   = 285.3613

EPHEMERIS_TYPE = 0
CLASSIFICATION_TYPE = U
NORAD_CAT_ID   = 65911
ELEMENT_SET_NO = 999
REV_AT_EPOCH   = 386
BSTAR          = .17292432E-2
MEAN_MOTION_DOT = .261788E-2
MEAN_MOTION_DDOT = 0

CCSDS_OMM_VERS = 2.0
CREATION_DATE  = 
ORIGINATOR     = 

OBJECT_NAME    = STARLINK-35508
OBJECT_ID      = 2025-225C
CENTER_NAME    = EARTH
REF_FRAME      = TEME
TIME_SYSTEM    = UTC
MEAN_ELEMENT_THEORY = SGP/SGP4

EPOCH          = 2025-10-26T20:29:01.430592
MEAN_MOTION    = 15.74289571
ECCENTRICITY   = .00007133
INCLINATION    = 53.1606
RA_OF_ASC_NODE = 71.1567
ARG_OF_PERICENTER = 95.4544
MEAN_ANOMALY   = 264.6557

EPHEMERIS_TYPE = 0
CLASSIFICATION_TYPE = U
NORAD_CAT_ID   = 65912
ELEMENT_SET_NO = 999
REV_AT_EPOCH   = 386
BSTAR          = .16956026E-2
MEAN_MOTION_DOT = .256521E-2
MEAN_MOTION_DDOT = 0

